STARLINK-1322
1 25552C 20025X   21325.11322355 -.00040419  00000-0 -95445-3 0  3258
2 25552  53.0558 282.7994 0001361 115.0896 205.2065 15.41320719    15
